start=new Date('2022-09-10T00:00:00.000Z').valueOf();
sats=[{"DECAY_DATE":null,"MEAN_ELEMENT_THEORY":"SGP4","MEAN_MOTION":"15.06392671","TIME_SYSTEM":"UTC","RCS_SIZE":"LARGE","RA_OF_ASC_NODE":"48.9081","ARG_OF_PERICENTER":"95.3066","TLE_LINE2":"2 45589  53.0561  48.9081 0001299  95.3066 264.8071 15.06392671133042","PERIOD":"95.593","TLE_LINE1":"1 45589U 20025BL  22252.77670694  .00000359  00000-0  43018-4 0  9996","NORAD_CAT_ID":"45589","MEAN_MOTION_DOT":"0.00000359","SEMIMAJOR_AXIS":"6925.371","REV_AT_EPOCH":"13304","APOAPSIS":"548.136","BSTAR":"0.00004301800000","ELEMENT_SET_NO":"999","OBJECT_NAME":"STARLINK-1364","OBJECT_TYPE":"PAYLOAD","COUNTRY_CODE":"US","ECCENTRICITY":"0.00012990","MEAN_MOTION_DDOT":"0.0000000000000","GP_ID":"212164302","MEAN_ANOMALY":"264.8071","CENTER_NAME":"EARTH","FILE":"3565505","REF_FRAME":"TEME","SITE":"AFETR","LAUNCH_DATE":"2020-04-22","INCLINATION":"53.0561","EPHEMERIS_TYPE":"0","OBJECT_ID":"2020-025BL","EPOCH":"2022-09-09T18:38:27.479616","CLASSIFICATION_TYPE":"U","PERIAPSIS":"546.336"},{"CLASSIFICATION_TYPE":"U","PERIAPSIS":"546.258","EPOCH":"2022-09-09T19:01:00.760224","OBJECT_ID":"2020-025BM","REF_FRAME":"TEME","SITE":"AFETR","LAUNCH_DATE":"2020-04-22","INCLINATION":"53.0550","EPHEMERIS_TYPE":"0","FILE":"3565505","CENTER_NAME":"EARTH","MEAN_ANOMALY":"298.5697","GP_ID":"212165053","COUNTRY_CODE":"US","ECCENTRICITY":"0.00013850","MEAN_MOTION_DDOT":"0.0000000000000","OBJECT_NAME":"STARLINK-1365","OBJECT_TYPE":"PAYLOAD","BSTAR":"0.00012757000000","ELEMENT_SET_NO":"999","APOAPSIS":"548.176","NORAD_CAT_ID":"45590","MEAN_MOTION_DOT":"0.00001619","REV_AT_EPOCH":"13264","SEMIMAJOR_AXIS":"6925.352","PERIOD":"95.592","TLE_LINE2":"2 45590  53.0550  78.8408 0001385  61.5432 298.5697 15.06398808132646","TLE_LINE1":"1 45590U 20025BM  22252.79236991  .00001619  00000-0  12757-3 0  9993","TIME_SYSTEM":"UTC","RA_OF_ASC_NODE":"78.8408","RCS_SIZE":"LARGE","ARG_OF_PERICENTER":"61.5432","DECAY_DATE":null,"MEAN_ELEMENT_THEORY":"SGP4","MEAN_MOTION":"15.06398808"},{"TLE_LINE1":"1 45658U 20035B   22252.70022291  .00001492  00000-0  11901-3 0  9995","TLE_LINE2":"2 45658  53.0561  39.2402 0001438  71.0971 289.0174 15.06399598126264","PERIOD":"95.592","SEMIMAJOR_AXIS":"6925.350","REV_AT_EPOCH":"12626","MEAN_MOTION_DOT":"0.00001492","NORAD_CAT_ID":"45658","MEAN_MOTION":"15.06399598","MEAN_ELEMENT_THEORY":"SGP4","DECAY_DATE":null,"ARG_OF_PERICENTER":"71.0971","RCS_SIZE":"LARGE","RA_OF_ASC_NODE":"39.2402","TIME_SYSTEM":"UTC","BSTAR":"0.00011901000000","ELEMENT_SET_NO":"999","OBJECT_TYPE":"PAYLOAD","OBJECT_NAME":"STARLINK-1441","APOAPSIS":"548.211","MEAN_ANOMALY":"289.0174","CENTER_NAME":"EARTH","FILE":"3565505","MEAN_MOTION_DDOT":"0.0000000000000","ECCENTRICITY":"0.00014380","COUNTRY_CODE":"US","GP_ID":"212164307","EPOCH":"2022-09-09T16:48:19.259424","PERIAPSIS":"546.219","CLASSIFICATION_TYPE":"U","EPHEMERIS_TYPE":"0","LAUNCH_DATE":"2020-06-04","INCLINATION":"53.0561","REF_FRAME":"TEME","SITE":"AFETR","OBJECT_ID":"2020-035B"},{"EPOCH":"2022-09-09T18:27:47.671200","PERIAPSIS":"546.214","CLASSIFICATION_TYPE":"U","LAUNCH_DATE":"2020-06-04","INCLINATION":"53.0565","EPHEMERIS_TYPE":"0","REF_FRAME":"TEME","SITE":"AFETR","OBJECT_ID":"2020-035C","MEAN_ANOMALY":"233.2198","CENTER_NAME":"EARTH","FILE":"3565505","MEAN_MOTION_DDOT":"0.0000000000000","COUNTRY_CODE":"US","ECCENTRICITY":"0.00014250","GP_ID":"212165058","BSTAR":"0.00006316500000","ELEMENT_SET_NO":"999","OBJECT_TYPE":"PAYLOAD","OBJECT_NAME":"STARLINK-1442","APOAPSIS":"548.188","PERIOD":"95.592","TLE_LINE2":"2 45659  53.0565  38.9512 0001425 126.8921 233.2198 15.06404156126261","TLE_LINE1":"1 45659U 20035C   22252.76930175  .00000660  00000-0  63165-4 0  9997","REV_AT_EPOCH":"12626","SEMIMAJOR_AXIS":"6925.336","NORAD_CAT_ID":"45659","MEAN_MOTION_DOT":"0.00000660","MEAN_MOTION":"15.06404156","MEAN_ELEMENT_THEORY":"SGP4","DECAY_DATE":null,"RCS_SIZE":"LARGE","RA_OF_ASC_NODE":"38.9512","ARG_OF_PERICENTER":"126.8921","TIME_SYSTEM":"UTC"},{"CENTER_NAME":"EARTH","FILE":"3565505","MEAN_ANOMALY":"274.6770","GP_ID":"212164807","MEAN_MOTION_DDOT":"0.0000000000000","ECCENTRICITY":"0.00012010","COUNTRY_CODE":"US","PERIAPSIS":"546.388","CLASSIFICATION_TYPE":"U","EPOCH":"2022-09-09T13:53:09.291264","OBJECT_ID":"2020-035D","LAUNCH_DATE":"2020-06-04","EPHEMERIS_TYPE":"0","INCLINATION":"53.0549","REF_FRAME":"TEME","SITE":"AFETR","SEMIMAJOR_AXIS":"6925.354","REV_AT_EPOCH":"12624","MEAN_MOTION_DOT":"0.00001116","NORAD_CAT_ID":"45660","TLE_LINE1":"1 45660U 20035D   22252.57857976  .00001116  00000-0  93799-4 0  9998","PERIOD":"95.592","TLE_LINE2":"2 45660  53.0549  39.7961 0001201  85.4356 274.6770 15.06398098126246","ARG_OF_PERICENTER":"85.4356","RA_OF_ASC_NODE":"39.7961","RCS_SIZE":"LARGE","TIME_SYSTEM":"UTC","MEAN_MOTION":"15.06398098","DECAY_DATE":null,"MEAN_ELEMENT_THEORY":"SGP4","OBJECT_TYPE":"PAYLOAD","OBJECT_NAME":"STARLINK-1443","BSTAR":"0.00009379900000","ELEMENT_SET_NO":"999","APOAPSIS":"548.051"},{"ECCENTRICITY":"0.00013520","COUNTRY_CODE":"US","MEAN_MOTION_DDOT":"0.0000000000000","GP_ID":"212163558","MEAN_ANOMALY":"268.8539","FILE":"3565505","CENTER_NAME":"EARTH","REF_FRAME":"TEME","SITE":"AFETR","EPHEMERIS_TYPE":"0","LAUNCH_DATE":"2020-06-04","INCLINATION":"53.0571","OBJECT_ID":"2020-035E","EPOCH":"2022-09-09T19:06:19.022400","CLASSIFICATION_TYPE":"U","PERIAPSIS":"546.280","MEAN_ELEMENT_THEORY":"SGP4","DECAY_DATE":null,"MEAN_MOTION":"15.06399076","TIME_SYSTEM":"UTC","ARG_OF_PERICENTER":"91.2605","RA_OF_ASC_NODE":"38.8286","RCS_SIZE":"LARGE","TLE_LINE1":"1 45661U 20035E   22252.79605350  .00001168  00000-0  97316-4 0  9996","PERIOD":"95.592","TLE_LINE2":"2 45661  53.0571  38.8286 0001352  91.2605 268.8539 15.06399076126279","MEAN_MOTION_DOT":"0.00001168","NORAD_CAT_ID":"45661","REV_AT_EPOCH":"12627","SEMIMAJOR_AXIS":"6925.351","APOAPSIS":"548.153","BSTAR":"0.00009731600000","ELEMENT_SET_NO":"999","OBJECT_NAME":"STARLINK-1444","OBJECT_TYPE":"PAYLOAD"},{"INCLINATION":"53.0566","LAUNCH_DATE":"2020-06-04","EPHEMERIS_TYPE":"0","REF_FRAME":"TEME","SITE":"AFETR","OBJECT_ID":"2020-035F","EPOCH":"2022-09-09T16:16:28.088832","PERIAPSIS":"546.147","CLASSIFICATION_TYPE":"U","MEAN_MOTION_DDOT":"0.0000000000000","COUNTRY_CODE":"US","ECCENTRICITY":"0.00015620","GP_ID":"212163808","MEAN_ANOMALY":"297.8407","FILE":"3565505","CENTER_NAME":"EARTH","APOAPSIS":"548.311","BSTAR":"0.00003451400000","ELEMENT_SET_NO":"999","OBJECT_TYPE":"PAYLOAD","OBJECT_NAME":"STARLINK-1445","MEAN_MOTION":"15.06394988","DECAY_DATE":null,"MEAN_ELEMENT_THEORY":"SGP4","RA_OF_ASC_NODE":"39.3439","RCS_SIZE":"LARGE","ARG_OF_PERICENTER":"62.2740","TIME_SYSTEM":"UTC","TLE_LINE2":"2 45662  53.0566  39.3439 0001562  62.2740 297.8407 15.06394988126252","PERIOD":"95.592","TLE_LINE1":"1 45662U 20035F   22252.67810288  .00000233  00000-0  34514-4 0  9995","REV_AT_EPOCH":"12625","SEMIMAJOR_AXIS":"6925.364","NORAD_CAT_ID":"45662","MEAN_MOTION_DOT":"0.00000233"},{"APOAPSIS":"548.254","OBJECT_TYPE":"PAYLOAD","OBJECT_NAME":"STARLINK-1446","ELEMENT_SET_NO":"999","BSTAR":"0.00016057000000","RCS_SIZE":"LARGE","RA_OF_ASC_NODE":"39.3187","ARG_OF_PERICENTER":"90.5249","TIME_SYSTEM":"UTC","MEAN_MOTION":"15.06402508","MEAN_ELEMENT_THEORY":"SGP4","DECAY_DATE":null,"REV_AT_EPOCH":"12625","SEMIMAJOR_AXIS":"6925.341","NORAD_CAT_ID":"45663","MEAN_MOTION_DOT":"0.00002111","TLE_LINE2":"2 45663  53.0560  39.3187 0001513  90.5249 269.5913 15.06402508126257","PERIOD":"95.592","TLE_LINE1":"1 45663U 20035G   22252.68178298  .00002111  00000-0  16057-3 0  9993","OBJECT_ID":"2020-035G","INCLINATION":"53.0560","LAUNCH_DATE":"2020-06-04","EPHEMERIS_TYPE":"0","REF_FRAME":"TEME","SITE":"AFETR","PERIAPSIS":"546.158","CLASSIFICATION_TYPE":"U","EPOCH":"2022-09-09T16:21:46.049472","GP_ID":"212164559","MEAN_MOTION_DDOT":"0.0000000000000","COUNTRY_CODE":"US","ECCENTRICITY":"0.00015130","CENTER_NAME":"EARTH","FILE":"3565505","MEAN_ANOMALY":"269.5913"},{"TLE_LINE1":"1 45665U 20035J   22252.71496865 -.00000076  00000-0  13785-4 0  9997","PERIOD":"95.593","TLE_LINE2":"2 45665  53.0586  39.1878 0001389  87.8573 272.2575 15.06384868126255","SEMIMAJOR_AXIS":"6925.395","REV_AT_EPOCH":"12625","MEAN_MOTION_DOT":"-0.00000076","NORAD_CAT_ID":"45665","MEAN_MOTION":"15.06384868","MEAN_ELEMENT_THEORY":"SGP4","DECAY_DATE":null,"ARG_OF_PERICENTER":"87.8573","RA_OF_ASC_NODE":"39.1878","RCS_SIZE":"LARGE","TIME_SYSTEM":"UTC","BSTAR":"0.00001378500000","ELEMENT_SET_NO":"999","OBJECT_TYPE":"PAYLOAD","OBJECT_NAME":"STARLINK-1448","APOAPSIS":"548.222","MEAN_ANOMALY":"272.2575","CENTER_NAME":"EARTH","FILE":"3565505","MEAN_MOTION_DDOT":"0.0000000000000","ECCENTRICITY":"0.00013890","COUNTRY_CODE":"US","GP_ID":"212165306","EPOCH":"2022-09-09T17:09:33.291360","PERIAPSIS":"546.298","CLASSIFICATION_TYPE":"U","INCLINATION":"53.0586","LAUNCH_DATE":"2020-06-04","EPHEMERIS_TYPE":"0","SITE":"AFETR","REF_FRAME":"TEME","OBJECT_ID":"2020-035J"},{"MEAN_ELEMENT_THEORY":"SGP4","DECAY_DATE":null,"MEAN_MOTION":"15.06406778","TIME_SYSTEM":"UTC","RCS_SIZE":"LARGE","RA_OF_ASC_NODE":"39.1460","ARG_OF_PERICENTER":"95.4197","TLE_LINE2":"2 45666  53.0553  39.1460 0001515  95.4197 264.6965 15.06406778126258","PERIOD":"95.592","TLE_LINE1":"1 45666U 20035K   22252.71864811  .00002277  00000-0  17168-3 0  9990","NORAD_CAT_ID":"45666","MEAN_MOTION_DOT":"0.00002277","REV_AT_EPOCH":"12625","SEMIMAJOR_AXIS":"6925.328","APOAPSIS":"548.242","ELEMENT_SET_NO":"999","BSTAR":"0.00017168000000","OBJECT_NAME":"STARLINK-1449","OBJECT_TYPE":"PAYLOAD","COUNTRY_CODE":"US","ECCENTRICITY":"0.00015150","MEAN_MOTION_DDOT":"0.0000000000000","GP_ID":"212164058","MEAN_ANOMALY":"264.6965","FILE":"3565505","CENTER_NAME":"EARTH","SITE":"AFETR","REF_FRAME":"TEME","LAUNCH_DATE":"2020-06-04","EPHEMERIS_TYPE":"0","INCLINATION":"53.0553","OBJECT_ID":"2020-035K","EPOCH":"2022-09-09T17:14:51.196704","CLASSIFICATION_TYPE":"U","PERIAPSIS":"546.144"}];
